     3.04           N: GNSS NAV DATA    G: GPS              RINEX VERSION / TYPE
sbf2rin-13.8.0                          20220328 002731 UTC PGM / RUN BY / DATE 
GPSA   2.1420E-08  7.4506E-09 -1.1921E-07  0.0000E+00       IONOSPHERIC CORR    
GPSB   1.2288E+05  0.0000E+00 -2.6214E+05  1.9661E+05       IONOSPHERIC CORR    
                                                            COMMENT             
                                                            COMMENT             
ABPO                                    MARKER NAME         COMMENT
33302M001                               MARKER NUMBER       COMMENT
  4097216.5539  4429119.1897 -2065771.1988                  COMMENT
                                                            END OF HEADER       
G26 2022 03 27 18 00 00 1.941183581948E-04 2.955857780762E-12 0.000000000000E+00
     5.300000000000E+01-3.718750000000E+00 5.367366429499E-09-2.947232080069E+00
    -2.589076757431E-07 6.932151503861E-03 6.752088665962E-06 5.153719623566E+03
     6.480000000000E+04-1.601874828339E-07 1.461630547511E+00-8.940696716309E-08
     9.378556999687E-01 2.391562500000E+02 3.848396845176E-01-8.338204462542E-09
    -3.960879272235E-10 1.000000000000E+00 2.203000000000E+03 0.000000000000E+00
     2.000000000000E+00 0.000000000000E+00 6.984919309616E-09 5.300000000000E+01
     5.761800000000E+04 4.000000000000E+00
G24 2022 03 27 17 59 44 2.637701109052E-04-4.206412995700E-12 0.000000000000E+00
     3.100000000000E+01 3.609375000000E+01 5.489157216860E-09-4.092008576125E-01
     2.074986696243E-06 1.239014230669E-02 7.528811693192E-06 5.153687438965E+03
     6.478400000000E+04 4.284083843231E-08 3.901030735874E-01 1.452863216400E-07
     9.347045159092E-01 2.239687500000E+02 8.123795295654E-01-8.603929816784E-09
     4.368039089218E-10 1.000000000000E+00 2.203000000000E+03 0.000000000000E+00
     2.000000000000E+00 0.000000000000E+00 2.328306436539E-09 3.100000000000E+01
     5.761800000000E+04 4.000000000000E+00
G15 2022 03 27 18 00 00-7.353024557233E-05 2.955857780762E-12 0.000000000000E+00
     4.400000000000E+01-7.221875000000E+01 5.038424156304E-09 5.465802584617E-01
    -3.674998879433E-06 1.395154045895E-02 1.037120819092E-05 5.153762655258E+03
     6.480000000000E+04-1.955777406693E-07-7.049987005171E-01 7.636845111847E-08
     9.302639436501E-01 1.676562500000E+02 1.081973221030E+00-8.391063807203E-09
     9.643258823294E-11 1.000000000000E+00 2.203000000000E+03 0.000000000000E+00
     2.000000000000E+00 0.000000000000E+00-1.071020960808E-08 4.400000000000E+01
     5.761800000000E+04 4.000000000000E+00
G18 2022 03 27 18 00 00 2.099173143506E-04-8.981260180008E-12 0.000000000000E+00
     8.000000000000E+00 5.700000000000E+01 4.317679848696E-09-4.426577501978E-01
     2.790242433548E-06 2.158611081541E-03 3.851950168610E-06 5.153612476349E+03
     6.480000000000E+04 6.891787052155E-08-2.653807514535E+00-1.117587089539E-08
     9.711986473277E-01 3.121562500000E+02 3.071185226941E+00-8.194984211129E-09
     9.250385315679E-11 1.000000000000E+00 2.203000000000E+03 0.000000000000E+00
     2.000000000000E+00 0.000000000000E+00-8.381903171539E-09 8.000000000000E+00
     5.761800000000E+04 4.000000000000E+00
G16 2022 03 27 18 00 00-4.854062572122E-04-4.206412995700E-12 0.000000000000E+00
     2.700000000000E+01-3.656250000000E+00 4.524831334530E-09 2.418393890190E+00
    -3.427267074585E-07 1.279853249434E-02 7.623806595802E-06 5.153623832703E+03
     6.480000000000E+04-1.415610313416E-07 1.605274915515E+00-1.583248376846E-07
     9.694654668366E-01 2.389687500000E+02 7.199095296130E-01-7.814254066476E-09
    -4.496615873529E-10 1.000000000000E+00 2.203000000000E+03 0.000000000000E+00
     2.000000000000E+00 0.000000000000E+00-1.024454832077E-08 2.700000000000E+01
     6.046800000000E+04 4.000000000000E+00
G27 2022 03 27 18 00 00 1.671863719821E-04 1.114131009672E-11 0.000000000000E+00
     7.900000000000E+01 5.946875000000E+01 4.114814255673E-09 1.512130641991E+00
     3.276392817497E-06 1.044727722183E-02 1.019053161144E-05 5.153659484863E+03
     6.480000000000E+04-1.806765794754E-07 2.561788103592E+00 1.583248376846E-07
     9.730924181880E-01 1.927812500000E+02 6.572860282014E-01-7.904257815494E-09
    -2.725113511916E-10 1.000000000000E+00 2.203000000000E+03 0.000000000000E+00
     2.800000000000E+00 0.000000000000E+00 1.396983861923E-09 7.900000000000E+01
     6.435600000000E+04 4.000000000000E+00
G22 2022 03 27 20 00 00 2.341144718230E-04 5.911715561524E-12 0.000000000000E+00
     7.900000000000E+01-5.350000000000E+01 4.046954286176E-09 2.398965226279E+00
    -2.717599272728E-06 1.315046660602E-02 1.138448715210E-05 5.153676958084E+03
     7.200000000000E+04 1.881271600723E-07-4.963715216720E-01-1.713633537292E-07
     9.616438524407E-01 1.583750000000E+02-1.864357343087E+00-7.511741465612E-09
     2.992981812563E-10 1.000000000000E+00 2.203000000000E+03 0.000000000000E+00
     2.000000000000E+00 0.000000000000E+00-9.778887033463E-09 7.900000000000E+01
     6.481800000000E+04 4.000000000000E+00
G32 2022 03 27 20 00 00-9.325006976724E-05-7.617018127348E-12 0.000000000000E+00
     8.300000000000E+01-6.568750000000E+01 4.144815505346E-09-3.087189005059E+00
    -3.349035978317E-06 5.821739556268E-03 1.133047044277E-05 5.153586299896E+03
     7.200000000000E+04 3.539025783539E-08-5.865924211289E-01-4.284083843231E-08
     9.583069319131E-01 1.600937500000E+02-2.312859332515E+00-7.661033398506E-09
     2.585821995580E-10 1.000000000000E+00 2.203000000000E+03 0.000000000000E+00
     2.000000000000E+00 0.000000000000E+00 4.656612873077E-10 8.300000000000E+01
     6.481800000000E+04 4.000000000000E+00
G26 2022 03 27 20 00 00 1.941393129528E-04 2.955857780762E-12 0.000000000000E+00
     5.500000000000E+01-1.265625000000E+01 5.408439568931E-09-1.897214162768E+00
    -9.164214134216E-07 6.933310418390E-03 6.258487701416E-06 5.153716766357E+03
     7.200000000000E+04 4.656612873077E-08 1.461569198578E+00-1.098960638046E-07
     9.378530974374E-01 2.453125000000E+02 3.849823234191E-01-8.442851678661E-09
    -2.560820954186E-10 1.000000000000E+00 2.203000000000E+03 0.000000000000E+00
     2.000000000000E+00 0.000000000000E+00 6.984919309616E-09 5.500000000000E+01
     6.481800000000E+04 4.000000000000E+00
G31 2022 03 27 20 00 00-1.708269119263E-04-1.705302565824E-12 0.000000000000E+00
     2.900000000000E+01 3.696875000000E+01 4.876988860448E-09-7.815927448179E-01
     2.119690179825E-06 1.043663034216E-02 6.655231118202E-06 5.153704462051E+03
     7.200000000000E+04 1.732259988785E-07 4.916965665299E-01 1.862645149231E-09
     9.553788750449E-01 2.420312500000E+02 3.838431125378E-01-8.248915028993E-09
     4.696624204679E-10 1.000000000000E+00 2.203000000000E+03 0.000000000000E+00
     2.000000000000E+00 0.000000000000E+00-1.350417733192E-08 2.900000000000E+01
     6.481800000000E+04 4.000000000000E+00
G29 2022 03 27 20 00 00-4.963441751897E-04-4.433786671143E-12 0.000000000000E+00
     3.600000000000E+01 7.359375000000E+01 3.921591921473E-09 2.703414048412E+00
     3.963708877563E-06 1.969418837689E-03 1.072511076927E-05 5.153740474701E+03
     7.200000000000E+04 8.195638656616E-08 2.637558090527E+00 4.842877388000E-08
     9.816178951369E-01 1.834062500000E+02 2.231756059747E+00-7.748537043384E-09
    -1.046472161195E-10 1.000000000000E+00 2.203000000000E+03 0.000000000000E+00
     2.000000000000E+00 0.000000000000E+00-1.024454832077E-08 3.600000000000E+01
     6.481800000000E+04 4.000000000000E+00
G16 2022 03 27 20 00 00-4.854360595345E-04-4.206412995700E-12 0.000000000000E+00
     3.600000000000E+01-1.059375000000E+01 4.584119518407E-09-2.814576642117E+00
    -7.618218660355E-07 1.279946486466E-02 7.644295692444E-06 5.153622131348E+03
     7.200000000000E+04-1.862645149231E-09 1.605218146979E+00-2.644956111908E-07
     9.694621416238E-01 2.375312500000E+02 7.199069402480E-01-7.883542666910E-09
    -3.803729869188E-10 1.000000000000E+00 2.203000000000E+03 0.000000000000E+00
     2.000000000000E+00 0.000000000000E+00-1.024454832077E-08 3.600000000000E+01
     6.481800000000E+04 4.000000000000E+00
G25 2022 03 27 20 00 00 3.041005693376E-04 5.115907697473E-12 0.000000000000E+00
     9.800000000000E+01-1.531250000000E+00 4.993779439530E-09-1.239872757266E+00
     1.247972249985E-07 1.056939805858E-02 6.727874279022E-06 5.153686464310E+03
     7.200000000000E+04 1.862645149231E-07 1.509354971447E+00 1.266598701477E-07
     9.570018568429E-01 2.477500000000E+02 9.929082901814E-01-8.210699151434E-09
    -3.760870941085E-10 1.000000000000E+00 2.203000000000E+03 0.000000000000E+00
     2.800000000000E+00 0.000000000000E+00 5.587935447693E-09 9.800000000000E+01
     6.481800000000E+04 4.000000000000E+00
G18 2022 03 27 20 00 00 2.098521217704E-04-9.094947017729E-12 0.000000000000E+00
     9.000000000000E+00 6.218750000000E+01 4.452685472223E-09 6.073799867173E-01
     3.065913915634E-06 2.159177791327E-03 3.328546881676E-06 5.153613603592E+03
     7.200000000000E+04-6.519258022308E-08-2.653867009950E+00-5.587935447693E-09
     9.711986926781E-01 3.163125000000E+02 3.071364952278E+00-8.328204045984E-09
     9.107522222000E-11 1.000000000000E+00 2.203000000000E+03 0.000000000000E+00
     2.000000000000E+00 0.000000000000E+00-8.381903171539E-09 9.000000000000E+00
     6.481800000000E+04 4.000000000000E+00
G27 2022 03 27 20 00 00 1.672660000622E-04 1.114131009672E-11 0.000000000000E+00
     1.010000000000E+02 5.715625000000E+01 4.059454806873E-09 2.562345924496E+00
     2.883374691010E-06 1.044812367763E-02 1.050904393196E-05 5.153658262253E+03
     7.200000000000E+04-1.024454832077E-07 2.561731367240E+00-1.620501279831E-07
     9.730920685506E-01 1.827500000000E+02 6.572573096565E-01-7.624960467352E-09
    -1.607209803882E-10 1.000000000000E+00 2.203000000000E+03 0.000000000000E+00
     2.800000000000E+00 0.000000000000E+00 1.396983861923E-09 1.010000000000E+02
     6.481800000000E+04 4.000000000000E+00
